[{"OBJECT_NAME":"TIANMU-1 22","OBJECT_ID":"2023-208D","EPOCH":"2026-03-09T22:39:05.738688","MEAN_MOTION":15.29457749,"ECCENTRICITY":0.00031332,"INCLINATION":97.4379,"RA_OF_ASC_NODE":184.9419,"ARG_OF_PERICENTER":351.9312,"MEAN_ANOMALY":8.1877,"EPHEMERIS_TYPE":0,"CLASSIFICATION_TYPE":"U","NORAD_CAT_ID":58663,"ELEMENT_SET_NO":999,"REV_AT_EPOCH":12215,"BSTAR":0.00038239675,"MEAN_MOTION_DOT":0.00010851,"MEAN_MOTION_DDOT":0},{"OBJECT_NAME":"STARLINK-35450","OBJECT_ID":"2025-223Q","EPOCH":"2026-03-09T21:18:30.443040","MEAN_MOTION":15.30193555,"ECCENTRICITY":0.00010366,"INCLINATION":53.1605,"RA_OF_ASC_NODE":293.4214,"ARG_OF_PERICENTER":74.5557,"MEAN_ANOMALY":285.5558,"EPHEMERIS_TYPE":0,"CLASSIFICATION_TYPE":"U","NORAD_CAT_ID":65868,"ELEMENT_SET_NO":999,"REV_AT_EPOCH":2423,"BSTAR":0.0014391938,"MEAN_MOTION_DOT":0.00042501,"MEAN_MOTION_DDOT":0}]
